{
  "type": "FeatureCollection",
  "features": [
    {
      "type": "Feature",
      "properties": {
        "mission": "CA-LFD-PALISADES-N57B",
        "acres_burned": 3294.6139133
      },
      "geometry": {
        "type": "MultiPolygon",
        "coordinates": [
          [
            [
              [-118.5500113, 34.0619646],
              [-118.5499205, 34.0619871],
              [-118.5497977, 34.061965],
              [-118.5496642, 34.0619784],
              [-118.5496492, 34.0620735],
              [-118.5496824, 34.0622081],
              [-118.5497413, 34.0623235],
              [-118.5498473, 34.0623239],
              [-118.5499477, 34.062342],
              [-118.5500211, 34.0624707],
              [-118.5501778, 34.0625272],
              [-118.5503026, 34.0623889],
              [-118.550284, 34.0622535],
              [-118.5501335, 34.062167],
              [-118.5501449, 34.0620315],
              [-118.5501343, 34.0619467],
              [-118.5500113, 34.0619646]
            ]
          ],
          [
            [
              [-118.5451331, 34.0610601],
              [-118.5449673, 34.0612183],
              [-118.5451579, 34.0613625],
              [-118.5453918, 34.0611906],
              [-118.5455322, 34.0610101],
              [-118.5453221, 34.060884],
              [-118.5451331, 34.0610601]
            ]
          ],
          [
            [
              [-118.546093, 34.059213],
              [-118.5459325, 34.0592291],
              [-118.5457096, 34.0592384],
              [-118.5455475, 34.0592603],
              [-118.5452128, 34.0592859],
              [-118.5450477, 34.0594116],
              [-118.5450681, 34.0595731],
              [-118.5453293, 34.0597369],
              [-118.5456096, 34.059752],
              [-118.545875, 34.059907],
              [-118.5458974, 34.0601418],
              [-118.5459355, 34.060169],
              [-118.545993, 34.060374],
              [-118.5461818, 34.0604802],
              [-118.5463533, 34.0604502],
              [-118.5464049, 34.0602801],
              [-118.5465411, 34.0601255],
              [-118.5466542, 34.0599968],
              [-118.5466839, 34.0597922],
              [-118.5466717, 34.059627],
              [-118.5466673, 34.05948],
              [-118.5465618, 34.0593449],
              [-118.5464524, 34.0592414],
              [-118.5463036, 34.0591755],
              [-118.546093, 34.059213]
            ]
          ],
          [
            [
              [-118.5444699, 34.0586159],
              [-118.5443654, 34.0586825],
              [-118.5441694, 34.0586577],
              [-118.544155, 34.0587941],
              [-118.5443256, 34.0589351],
              [-118.5445073, 34.0589035],
              [-118.5446306, 34.0588836],
              [-118.544771, 34.0588473],
              [-118.5448341, 34.058744],
              [-118.5447296, 34.0585873],
              [-118.5445658, 34.0584995],
              [-118.5444699, 34.0586159]
            ]
          ],
          [
            [
              [-118.5402882, 34.0585068],
              [-118.5400852, 34.0585771],
              [-118.5400122, 34.0587508],
              [-118.5400392, 34.0589273],
              [-118.5401824, 34.059078],
              [-118.5403071, 34.0591864],
              [-118.5403823, 34.0593306],
              [-118.5405332, 34.0594957],
              [-118.5406156, 34.0596201],
              [-118.5406431, 34.0597106],
              [-118.5406472, 34.0598989],
              [-118.540648, 34.0600454],
              [-118.5407173, 34.0601876],
              [-118.5408058, 34.0602906],
              [-118.5409992, 34.0603671],
              [-118.5411543, 34.0603934],
              [-118.5413236, 34.0604696],
              [-118.5415646, 34.0605469],
              [-118.5417563, 34.0605501],
              [-118.5419265, 34.060519],
              [-118.5419471, 34.0603969],
              [-118.5419394, 34.0602669],
              [-118.5418576, 34.0600133],
              [-118.5417477, 34.0597426],
              [-118.541694, 34.0596058],
              [-118.5416239, 34.059509],
              [-118.5415542, 34.0594235],
              [-118.5414496, 34.0593612],
              [-118.5412158, 34.0592268],
              [-118.5412213, 34.0591708],
              [-118.541166, 34.059048],
              [-118.5409895, 34.0589452],
              [-118.5407306, 34.058837],
              [-118.5405867, 34.0587724],
              [-118.5405843, 34.0586383],
              [-118.5405141, 34.0584916],
              [-118.5402882, 34.0585068]
            ]
          ],
          [
            [
              [-118.5408954, 34.0549269],
              [-118.5407578, 34.0550353],
              [-118.5407212, 34.0552388],
              [-118.5404738, 34.055392],
              [-118.5404629, 34.055552],
              [-118.5407969, 34.0557345],
              [-118.5411167, 34.0558359],
              [-118.5413902, 34.0557326],
              [-118.5416685, 34.0557618],
              [-118.5417615, 34.0558997],
              [-118.5419965, 34.0559658],
              [-118.5422118, 34.0558708],
              [-118.5424856, 34.055856],
              [-118.5427847, 34.05591],
              [-118.5430071, 34.0559649],
              [-118.5432196, 34.0558869],
              [-118.5433838, 34.0557482],
              [-118.5435521, 34.0556539],
              [-118.5437268, 34.0556352],
              [-118.5439473, 34.0557316],
              [-118.54422, 34.0557604],
              [-118.5445085, 34.0557359],
              [-118.5446839, 34.0556367],
              [-118.5447207, 34.0556243],
              [-118.5448521, 34.0554628],
              [-118.5449796, 34.0553306],
              [-118.5451549, 34.0552237],
              [-118.5449898, 34.055119],
              [-118.5444263, 34.0549878],
              [-118.5441062, 34.0549238],
              [-118.5438025, 34.0549567],
              [-118.5435643, 34.0549824],
              [-118.5433934, 34.0549127],
              [-118.5432319, 34.0548736],
              [-118.5429656, 34.054863],
              [-118.5426854, 34.0549049],
              [-118.5423909, 34.0549221],
              [-118.5420855, 34.0549752],
              [-118.5417808, 34.0550131],
              [-118.541507, 34.0549888],
              [-118.5412821, 34.0548544],
              [-118.5410824, 34.0547979],
              [-118.5408954, 34.0549269]
            ]
          ],
          [
            [
              [-118.5390663, 34.0544148],
              [-118.538988, 34.0546079],
              [-118.5389466, 34.0549686],
              [-118.5389965, 34.0551927],
              [-118.5391006, 34.055617],
              [-118.5391556, 34.0559405],
              [-118.5391368, 34.056224],
              [-118.5391067, 34.0565187],
              [-118.5390459, 34.0569031],
              [-118.5390341, 34.057215],
              [-118.539129, 34.0574992],
              [-118.5394079, 34.0576868],
              [-118.5397235, 34.0576456],
              [-118.5399943, 34.0575506],
              [-118.5401079, 34.0574115],
              [-118.5400504, 34.0572237],
              [-118.5399705, 34.0570809],
              [-118.539903, 34.0569693],
              [-118.5399052, 34.0568174],
              [-118.5399211, 34.0566816],
              [-118.5399124, 34.0564052],
              [-118.5398869, 34.0561033],
              [-118.5396622, 34.0559275],
              [-118.5397092, 34.0557004],
              [-118.5399316, 34.0554571],
              [-118.5399607, 34.0551764],
              [-118.5398774, 34.0548633],
              [-118.5397818, 34.0546233],
              [-118.5395948, 34.0543287],
              [-118.5393247, 34.0542734],
              [-118.5390663, 34.0544148]
            ]
          ],
          [
            [
              [-118.5347796, 34.0520714],
              [-118.5347375, 34.0521521],
              [-118.5347826, 34.0522034],
              [-118.5348404, 34.052228],
              [-118.5348909, 34.0522319],
              [-118.534921, 34.0521907],
              [-118.5349035, 34.0521169],
              [-118.5348602, 34.0520648],
              [-118.5347796, 34.0520714]
            ]
          ],
          [
            [
              [-118.5431165, 34.0520903],
              [-118.543113, 34.0523031],
              [-118.5429414, 34.0523861],
              [-118.5427114, 34.0523471],
              [-118.5426158, 34.0522891],
              [-118.5424862, 34.0522514],
              [-118.5423215, 34.0522013],
              [-118.5422473, 34.0522606],
              [-118.5421943, 34.0523515],
              [-118.5422602, 34.0524254],
              [-118.5423617, 34.052554],
              [-118.5425218, 34.0526092],
              [-118.5429799, 34.0526249],
              [-118.5435501, 34.0526916],
              [-118.5436823, 34.0526083],
              [-118.5436468, 34.0524533],
              [-118.5435269, 34.0523586],
              [-118.5435354, 34.0519661],
              [-118.5431696, 34.0519571],
              [-118.5431165, 34.0520903]
            ]
          ],
          [
            [
              [-118.5358894, 34.0518869],
              [-118.5357525, 34.0519726],
              [-118.5357005, 34.0520092],
              [-118.5355045, 34.0519532],
              [-118.5353839, 34.0520016],
              [-118.5352752, 34.052126],
              [-118.5352512, 34.0523008],
              [-118.5354604, 34.0523941],
              [-118.5353688, 34.0526084],
              [-118.5351832, 34.05283],
              [-118.5349392, 34.0529741],
              [-118.5345885, 34.0528931],
              [-118.5343136, 34.0527542],
              [-118.5340561, 34.0527398],
              [-118.5338429, 34.0528564],
              [-118.5337986, 34.0530898],
              [-118.5343726, 34.0537598],
              [-118.534382, 34.0539442],
              [-118.5342157, 34.0541109],
              [-118.5340853, 34.0542103],
              [-118.5338022, 34.0543371],
              [-118.5335089, 34.0545442],
              [-118.5333037, 34.0544476],
              [-118.5330798, 34.0543976],
              [-118.532723, 34.0543576],
              [-118.5324039, 34.0543598],
              [-118.532347, 34.0546399],
              [-118.5323253, 34.0548403],
              [-118.5322256, 34.0550731],
              [-118.5321094, 34.0552663],
              [-118.531895, 34.0556078],
              [-118.5319156, 34.0558786],
              [-118.5320071, 34.0560452],
              [-118.5322925, 34.0563306],
              [-118.5325646, 34.0565947],
              [-118.5326323, 34.0567948],
              [-118.5326962, 34.0570348],
              [-118.5325579, 34.0572587],
              [-118.5323797, 34.0573615],
              [-118.5320508, 34.0576148],
              [-118.5317846, 34.0578898],
              [-118.5317776, 34.0581254],
              [-118.5316613, 34.0583883],
              [-118.5310523, 34.0584929],
              [-118.5309221, 34.0587824],
              [-118.5310016, 34.0589345],
              [-118.5312545, 34.0591184],
              [-118.5312596, 34.059337],
              [-118.5312687, 34.0595986],
              [-118.5313388, 34.0597543],
              [-118.5312138, 34.0600023],
              [-118.5312441, 34.0602092],
              [-118.53125, 34.0605433],
              [-118.5311249, 34.0609239],
              [-118.530692, 34.060946],
              [-118.5303315, 34.0607029],
              [-118.5299692, 34.0604238],
              [-118.5296221, 34.0602812],
              [-118.5295477, 34.0601449],
              [-118.5297652, 34.0600559],
              [-118.5300069, 34.0599709],
              [-118.5300163, 34.059699],
              [-118.5298756, 34.0594725],
              [-118.52952, 34.0594427],
              [-118.529161, 34.0595073],
              [-118.5288676, 34.0595928],
              [-118.5286823, 34.05971],
              [-118.5284696, 34.0597834],
              [-118.5282892, 34.0597498],
              [-118.5281331, 34.0596701],
              [-118.5280437, 34.0595245],
              [-118.5277186, 34.0596236],
              [-118.5275938, 34.059854],
              [-118.5274207, 34.0601866],
              [-118.5274523, 34.0605292],
              [-118.5274075, 34.060956],
              [-118.526851, 34.0612874],
              [-118.5265796, 34.0616281],
              [-118.5265012, 34.0620223],
              [-118.5265226, 34.062412],
              [-118.5264967, 34.0627211],
              [-118.5266785, 34.0629071],
              [-118.5268036, 34.0633123],
              [-118.5269474, 34.0635544],
              [-118.5269946, 34.0637833],
              [-118.5270769, 34.063959],
              [-118.5273569, 34.0640814],
              [-118.5276461, 34.0642973],
              [-118.5281103, 34.0644925],
              [-118.5284352, 34.0645694],
              [-118.5288708, 34.0649096],
              [-118.5291815, 34.0651521],
              [-118.5293279, 34.0652793],
              [-118.5293906, 34.0656166],
              [-118.5294187, 34.0659098],
              [-118.5295757, 34.0661412],
              [-118.5298043, 34.0663206],
              [-118.5301919, 34.0664388],
              [-118.530384, 34.0667945],
              [-118.5305285, 34.0670347],
              [-118.5308989, 34.0671783],
              [-118.531156, 34.0675421],
              [-118.5313528, 34.0678617],
              [-118.5316418, 34.0680607],
              [-118.5320451, 34.0683111],
              [-118.5322093, 34.0685359],
              [-118.5323272, 34.0688139],
              [-118.5323499, 34.0690357],
              [-118.5324932, 34.0692658],
              [-118.5325735, 34.069506],
              [-118.5327098, 34.0696995],
              [-118.5327532, 34.0698891],
              [-118.5326359, 34.0700845],
              [-118.5327291, 34.0702843],
              [-118.5327707, 34.0704735],
              [-118.5326697, 34.0706549],
              [-118.5324913, 34.0707372],
              [-118.532298, 34.0708357],
              [-118.5321939, 34.0710417],
              [-118.5321986, 34.0712659],
              [-118.5323272, 34.0713546],
              [-118.5323165, 34.0715291],
              [-118.5322836, 34.0717503],
              [-118.5323486, 34.0719639],
              [-118.5323557, 34.0721295],
              [-118.53237, 34.0721916],
              [-118.5324771, 34.072375],
              [-118.5326557, 34.0725998],
              [-118.5326949, 34.0727684],
              [-118.5329062, 34.0728246],
              [-118.5331583, 34.0728715],
              [-118.5334417, 34.0728823],
              [-118.533844, 34.0728139],
              [-118.5340945, 34.072774],
              [-118.5344752, 34.0726871],
              [-118.5348029, 34.0725264],
              [-118.5350982, 34.0723701],
              [-118.5354876, 34.0722215],
              [-118.5358689, 34.0721464],
              [-118.5363199, 34.0721118],
              [-118.5367932, 34.0720322],
              [-118.5371625, 34.0720125],
              [-118.5374802, 34.0719323],
              [-118.5375359, 34.0717627],
              [-118.537577, 34.0715299],
              [-118.5378148, 34.0713035],
              [-118.538088, 34.071062],
              [-118.5385044, 34.0710333],
              [-118.5386742, 34.0712427],
              [-118.5386734, 34.0715263],
              [-118.538728, 34.0718307],
              [-118.5388143, 34.0720292],
              [-118.5390135, 34.0722405],
              [-118.5390743, 34.0725396],
              [-118.5392754, 34.072661],
              [-118.539522, 34.0727179],
              [-118.5395667, 34.0727123],
              [-118.5398569, 34.0726848],
              [-118.5401198, 34.0727618],
              [-118.5405989, 34.0728564],
              [-118.5411318, 34.0731095],
              [-118.5416852, 34.0732437],
              [-118.5418716, 34.0734137],
              [-118.542026, 34.0734526],
              [-118.542247, 34.0733555],
              [-118.5425081, 34.0734727],
              [-118.5427171, 34.073539],
              [-118.5428913, 34.0737567],
              [-118.5429657, 34.0739072],
              [-118.5430716, 34.0740563],
              [-118.5432064, 34.0742671],
              [-118.5433203, 34.074395],
              [-118.5434503, 34.0745493],
              [-118.5435746, 34.0746676],
              [-118.5436894, 34.0747762],
              [-118.5437885, 34.074952],
              [-118.5437053, 34.0751801],
              [-118.5436235, 34.0753858],
              [-118.5435535, 34.0754599],
              [-118.5434755, 34.0755495],
              [-118.543434, 34.0757167],
              [-118.5434246, 34.075877],
              [-118.5434302, 34.0760594],
              [-118.5435475, 34.0761681],
              [-118.5436778, 34.076239],
              [-118.5438173, 34.0762526],
              [-118.5439611, 34.076312],
              [-118.5440905, 34.076361],
              [-118.5441578, 34.0764207],
              [-118.5442126, 34.0764958],
              [-118.5443037, 34.0766261],
              [-118.5444186, 34.0767055],
              [-118.5445705, 34.0767312],
              [-118.5446569, 34.076703],
              [-118.544822, 34.0765928],
              [-118.5449386, 34.076515],
              [-118.5450102, 34.0764219],
              [-118.5450963, 34.0762921],
              [-118.5451738, 34.0761564],
              [-118.5452582, 34.0760599],
              [-118.5452928, 34.0760546],
              [-118.5454459, 34.075946],
              [-118.5455036, 34.0758272],
              [-118.5455541, 34.0757822],
              [-118.5455821, 34.0756648],
              [-118.5456249, 34.0756477],
              [-118.5457462, 34.0755015],
              [-118.5457453, 34.0753842],
              [-118.5457171, 34.0752632],
              [-118.5456365, 34.0750735],
              [-118.5455398, 34.0749434],
              [-118.5454154, 34.0747909],
              [-118.5454863, 34.0745808],
              [-118.5456819, 34.0744314],
              [-118.5458628, 34.074336],
              [-118.5459468, 34.0741692],
              [-118.5459563, 34.0739755],
              [-118.5458642, 34.0738271],
              [-118.5457725, 34.073619],
              [-118.5459245, 34.0733871],
              [-118.5461366, 34.0731846],
              [-118.5462642, 34.0730498],
              [-118.546504, 34.0728779],
              [-118.5467508, 34.072751],
              [-118.5468889, 34.072645],
              [-118.5469033, 34.0725066],
              [-118.5468805, 34.0723362],
              [-118.5468697, 34.0721379],
              [-118.5469123, 34.0718843],
              [-118.5470858, 34.0716872],
              [-118.5472667, 34.0715037],
              [-118.547598, 34.0713141],
              [-118.5478673, 34.0711156],
              [-118.5480449, 34.0707854],
              [-118.5482688, 34.0705547],
              [-118.5484641, 34.0703778],
              [-118.5486925, 34.0703327],
              [-118.5489967, 34.070294],
              [-118.5493421, 34.0701828],
              [-118.5495274, 34.069949],
              [-118.5496061, 34.0696618],
              [-118.5498089, 34.0693731],
              [-118.5498862, 34.0691298],
              [-118.5500133, 34.0689209],
              [-118.550052, 34.0687711],
              [-118.5500333, 34.0685405],
              [-118.5500531, 34.0683013],
              [-118.5502404, 34.0681206],
              [-118.5504901, 34.0679566],
              [-118.5505293, 34.0677397],
              [-118.5503944, 34.0676278],
              [-118.5501778, 34.0675526],
              [-118.5501145, 34.0673513],
              [-118.5502597, 34.0671288],
              [-118.5504612, 34.0669972],
              [-118.5506636, 34.0669164],
              [-118.5508695, 34.0669253],
              [-118.5510623, 34.0668825],
              [-118.5510959, 34.0667532],
              [-118.5511225, 34.0665478],
              [-118.5510666, 34.0664166],
              [-118.5512253, 34.0662869],
              [-118.5513257, 34.0661906],
              [-118.5514508, 34.0661194],
              [-118.5515634, 34.0658675],
              [-118.5517454, 34.0656426],
              [-118.5518116, 34.0654165],
              [-118.5518444, 34.0652029],
              [-118.5519313, 34.0649911],
              [-118.5520464, 34.06487],
              [-118.5520609, 34.0646293],
              [-118.5519275, 34.0644792],
              [-118.551657, 34.0644635],
              [-118.551403, 34.0644387],
              [-118.5511834, 34.0643798],
              [-118.5509858, 34.0644354],
              [-118.5508098, 34.0644471],
              [-118.5506372, 34.0644619],
              [-118.5504763, 34.0643189],
              [-118.550249, 34.0643105],
              [-118.5500524, 34.0644069],
              [-118.5498534, 34.0644504],
              [-118.5496227, 34.0644264],
              [-118.5495191, 34.0642555],
              [-118.5493199, 34.0639752],
              [-118.5493616, 34.0635784],
              [-118.5494628, 34.06316],
              [-118.5494848, 34.0627979],
              [-118.5492896, 34.0625187],
              [-118.5491564, 34.0622362],
              [-118.5492869, 34.061946],
              [-118.549183, 34.0617345],
              [-118.5491647, 34.0615064],
              [-118.5493465, 34.0612417],
              [-118.5497438, 34.0610735],
              [-118.5498623, 34.0608631],
              [-118.5498664, 34.060702],
              [-118.5500117, 34.0606275],
              [-118.5500807, 34.0604982],
              [-118.5501093, 34.0603938],
              [-118.5500725, 34.0602899],
              [-118.5499466, 34.0602233],
              [-118.5498956, 34.0601553],
              [-118.5499057, 34.0600699],
              [-118.5500703, 34.0598833],
              [-118.5502221, 34.0598245],
              [-118.5504216, 34.0598271],
              [-118.5506463, 34.0598343],
              [-118.5507614, 34.059831],
              [-118.5508891, 34.0599532],
              [-118.5510217, 34.0598656],
              [-118.5508602, 34.0597626],
              [-118.5506799, 34.0596675],
              [-118.5504303, 34.0597122],
              [-118.5502501, 34.0595921],
              [-118.5503697, 34.0593246],
              [-118.5506348, 34.0592211],
              [-118.5508424, 34.0592906],
              [-118.5510531, 34.059356],
              [-118.5513783, 34.0591598],
              [-118.5515905, 34.0588757],
              [-118.5517357, 34.0588799],
              [-118.551932, 34.0587937],
              [-118.5519825, 34.058639],
              [-118.5519528, 34.0584855],
              [-118.5519716, 34.0582983],
              [-118.5519252, 34.0580398],
              [-118.5516704, 34.0579625],
              [-118.5513749, 34.0580392],
              [-118.5512611, 34.058217],
              [-118.551314, 34.0584051],
              [-118.5512285, 34.0585848],
              [-118.5507413, 34.0587991],
              [-118.5505694, 34.0589221],
              [-118.5504142, 34.0591251],
              [-118.550159, 34.059186],
              [-118.550071, 34.0593467],
              [-118.5498765, 34.0595401],
              [-118.5496641, 34.0596194],
              [-118.5493487, 34.0594973],
              [-118.5491597, 34.0591991],
              [-118.5487366, 34.0588713],
              [-118.5483317, 34.0586824],
              [-118.5480138, 34.0587806],
              [-118.5479284, 34.0589044],
              [-118.5480472, 34.059116],
              [-118.5482545, 34.0592958],
              [-118.5485408, 34.0595592],
              [-118.5487048, 34.05976],
              [-118.5489201, 34.0599707],
              [-118.5489676, 34.0602236],
              [-118.5488076, 34.0604777],
              [-118.548613, 34.0606314],
              [-118.5482952, 34.0606652],
              [-118.5481382, 34.0606089],
              [-118.548023, 34.0603778],
              [-118.547906, 34.0600953],
              [-118.5478168, 34.0598705],
              [-118.5475305, 34.0596586],
              [-118.5473627, 34.0594568],
              [-118.5472178, 34.0592852],
              [-118.5470754, 34.0592681],
              [-118.5470977, 34.059444],
              [-118.5472661, 34.0597507],
              [-118.5473855, 34.0600632],
              [-118.5475136, 34.0603825],
              [-118.5474517, 34.0606871],
              [-118.5471107, 34.060899],
              [-118.5468899, 34.0611175],
              [-118.5466247, 34.0613026],
              [-118.5464973, 34.0615148],
              [-118.5463274, 34.0617096],
              [-118.5460296, 34.0616743],
              [-118.5456651, 34.0616298],
              [-118.545402, 34.0618338],
              [-118.5453051, 34.062026],
              [-118.5450063, 34.0621145],
              [-118.5446934, 34.0621732],
              [-118.5444459, 34.0622487],
              [-118.5441513, 34.0622815],
              [-118.5438435, 34.0622166],
              [-118.5435856, 34.0623485],
              [-118.5434434, 34.0625274],
              [-118.5433621, 34.0628154],
              [-118.5432307, 34.0630692],
              [-118.5431919, 34.0633672],
              [-118.543327, 34.0635976],
              [-118.5433972, 34.0638117],
              [-118.5434439, 34.064083],
              [-118.5432212, 34.0643942],
              [-118.5431649, 34.0645038],
              [-118.5429589, 34.0646033],
              [-118.542646, 34.0645688],
              [-118.5424193, 34.0644952],
              [-118.5422574, 34.0642367],
              [-118.5421316, 34.0641231],
              [-118.5420338, 34.0638439],
              [-118.5418347, 34.0637063],
              [-118.5415, 34.0635538],
              [-118.5413784, 34.0633354],
              [-118.5411232, 34.0631336],
              [-118.5410465, 34.0628663],
              [-118.5410749, 34.0626685],
              [-118.5411974, 34.0625308],
              [-118.5413283, 34.062494],
              [-118.5414017, 34.0623085],
              [-118.5412848, 34.0620994],
              [-118.5413678, 34.0619094],
              [-118.5415123, 34.0618046],
              [-118.5414677, 34.0616142],
              [-118.5414788, 34.0613786],
              [-118.5415026, 34.0611064],
              [-118.5414372, 34.0609069],
              [-118.5412238, 34.0608001],
              [-118.5410138, 34.060684],
              [-118.5408034, 34.0605958],
              [-118.540574, 34.0604441],
              [-118.5404426, 34.0603284],
              [-118.540339, 34.0601803],
              [-118.5401101, 34.0600377],
              [-118.539978, 34.059942],
              [-118.5397266, 34.0598498],
              [-118.5396377, 34.0597319],
              [-118.5396727, 34.0595723],
              [-118.5397095, 34.0594611],
              [-118.5396445, 34.0592967],
              [-118.5393653, 34.0589823],
              [-118.5390088, 34.058821],
              [-118.5387055, 34.0586715],
              [-118.5382667, 34.0586211],
              [-118.5378174, 34.0585035],
              [-118.5378816, 34.0582456],
              [-118.5380486, 34.058173],
              [-118.5382602, 34.058174],
              [-118.5385238, 34.0581689],
              [-118.538783, 34.0582169],
              [-118.5389842, 34.0581624],
              [-118.5389072, 34.0579323],
              [-118.5388499, 34.0577786],
              [-118.5385748, 34.057604],
              [-118.5382298, 34.0575207],
              [-118.5378727, 34.0575385],
              [-118.537496, 34.0576494],
              [-118.5372634, 34.0576865],
              [-118.5370996, 34.0579177],
              [-118.5367027, 34.0578443],
              [-118.5363901, 34.0575833],
              [-118.5362216, 34.0572965],
              [-118.5362314, 34.057026],
              [-118.5361804, 34.0568574],
              [-118.536334, 34.0566701],
              [-118.5364445, 34.056523],
              [-118.5363548, 34.0563206],
              [-118.5361106, 34.0561737],
              [-118.5358218, 34.056072],
              [-118.5354912, 34.0560137],
              [-118.5353082, 34.0558429],
              [-118.5352745, 34.0554939],
              [-118.5355438, 34.0554479],
              [-118.535882, 34.0554723],
              [-118.5360856, 34.0556516],
              [-118.5363765, 34.0558152],
              [-118.5365544, 34.0559253],
              [-118.5368353, 34.0559607],
              [-118.5372307, 34.0560722],
              [-118.5372849, 34.0562469],
              [-118.5373714, 34.0564951],
              [-118.5376758, 34.0565081],
              [-118.5377748, 34.0564055],
              [-118.5377945, 34.0562381],
              [-118.5379966, 34.0560041],
              [-118.5381307, 34.055796],
              [-118.5383182, 34.055547],
              [-118.5385429, 34.0554583],
              [-118.5385229, 34.0552298],
              [-118.538378, 34.055067],
              [-118.5381366, 34.05501],
              [-118.537898, 34.0550702],
              [-118.537551, 34.0549298],
              [-118.5374035, 34.054722],
              [-118.5370508, 34.054812],
              [-118.5368832, 34.0548776],
              [-118.5365722, 34.054839],
              [-118.5362448, 34.0547342],
              [-118.5361088, 34.0544726],
              [-118.5364993, 34.0543139],
              [-118.5367186, 34.0542907],
              [-118.5370917, 34.0543135],
              [-118.5372655, 34.0543415],
              [-118.5374884, 34.0544373],
              [-118.5376711, 34.0545312],
              [-118.5378345, 34.0545114],
              [-118.537906, 34.0544044],
              [-118.5379791, 34.0541418],
              [-118.5380158, 34.0538732],
              [-118.5380942, 34.0536255],
              [-118.5379949, 34.0533942],
              [-118.5378173, 34.053323],
              [-118.5375037, 34.0534101],
              [-118.5372408, 34.0535215],
              [-118.5371445, 34.0536708],
              [-118.5371341, 34.0539366],
              [-118.5369588, 34.0540236],
              [-118.5367674, 34.0540443],
              [-118.5364431, 34.0540473],
              [-118.5360986, 34.0541959],
              [-118.5358013, 34.0541967],
              [-118.5356159, 34.0539945],
              [-118.5358843, 34.0537571],
              [-118.5361478, 34.0535495],
              [-118.5362595, 34.0533981],
              [-118.5363078, 34.0532373],
              [-118.5362211, 34.0530845],
              [-118.536185, 34.0529223],
              [-118.5360811, 34.0528031],
              [-118.5362521, 34.0525681],
              [-118.5362063, 34.052317],
              [-118.5362012, 34.052144],
              [-118.5361443, 34.0519907],
              [-118.5360545, 34.0518427],
              [-118.5358894, 34.0518869]
            ]
          ],
          [
            [
              [-118.5682021, 34.0471184],
              [-118.5681261, 34.0472315],
              [-118.5682028, 34.0473579],
              [-118.5682118, 34.0474764],
              [-118.568189, 34.0474763],
              [-118.5682074, 34.0475832],
              [-118.5685565, 34.0476954],
              [-118.5685871, 34.0475824],
              [-118.5685872, 34.0474803],
              [-118.5685684, 34.0473761],
              [-118.5685243, 34.0472847],
              [-118.5684653, 34.0471809],
              [-118.5683329, 34.0471074],
              [-118.5682021, 34.0471184]
            ]
          ],
          [
            [
              [-118.5688703, 34.0455127],
              [-118.5688533, 34.045521],
              [-118.5688946, 34.0455563],
              [-118.5689454, 34.0455696],
              [-118.5689824, 34.0455759],
              [-118.5690226, 34.0455736],
              [-118.5690489, 34.0455458],
              [-118.5690217, 34.0455063],
              [-118.568981, 34.0454529],
              [-118.5689034, 34.0454414],
              [-118.5688703, 34.0455127]
            ]
          ],
          [
            [
              [-118.5689314, 34.0443965],
              [-118.5688555, 34.0444683],
              [-118.5688279, 34.0445607],
              [-118.5688106, 34.044569],
              [-118.5688622, 34.0446564],
              [-118.5689656, 34.0446707],
              [-118.5690621, 34.0446936],
              [-118.5691518, 34.0446964],
              [-118.5692072, 34.0446962],
              [-118.5692804, 34.0446842],
              [-118.5692772, 34.0446294],
              [-118.5691972, 34.0445608],
              [-118.5691002, 34.0445728],
              [-118.5690243, 34.0445614],
              [-118.5690106, 34.0444865],
              [-118.5690416, 34.0444232],
              [-118.5690003, 34.0443625],
              [-118.5689314, 34.0443965]
            ]
          ],
          [
            [
              [-118.5609271, 34.0440767],
              [-118.5608742, 34.0440957],
              [-118.560835, 34.0441356],
              [-118.5608387, 34.04419],
              [-118.5608562, 34.0442401],
              [-118.5608957, 34.0442579],
              [-118.5609528, 34.0442658],
              [-118.5609714, 34.0442389],
              [-118.5609762, 34.044215],
              [-118.5609825, 34.0441715],
              [-118.56098, 34.04412],
              [-118.560966, 34.0440766],
              [-118.5609271, 34.0440767]
            ]
          ],
          [
            [
              [-118.562914, 34.0430559],
              [-118.5628174, 34.0432374],
              [-118.5628732, 34.0432946],
              [-118.5628993, 34.0433702],
              [-118.5630006, 34.0433847],
              [-118.5630512, 34.0433411],
              [-118.5631444, 34.0431372],
              [-118.5630114, 34.0430365],
              [-118.562914, 34.0430559]
            ]
          ],
          [
            [
              [-118.5650987, 34.0419148],
              [-118.5650788, 34.0420399],
              [-118.5649741, 34.0421125],
              [-118.5648364, 34.0421453],
              [-118.5647028, 34.042201],
              [-118.5646515, 34.0423014],
              [-118.5647143, 34.042356],
              [-118.5648327, 34.0423588],
              [-118.5648851, 34.0423125],
              [-118.5649815, 34.0422356],
              [-118.5651255, 34.0422001],
              [-118.5652441, 34.0421845],
              [-118.5653956, 34.0421813],
              [-118.565555, 34.0421929],
              [-118.5657296, 34.0421993],
              [-118.5658823, 34.0422371],
              [-118.5659851, 34.0422429],
              [-118.565968, 34.0422457],
              [-118.5660764, 34.0422407],
              [-118.5661215, 34.042216],
              [-118.5660219, 34.0421475],
              [-118.5658846, 34.0420937],
              [-118.565751, 34.0420364],
              [-118.5655639, 34.0419642],
              [-118.5654077, 34.0418945],
              [-118.565266, 34.0418253],
              [-118.5651298, 34.0418174],
              [-118.5650987, 34.0419148]
            ]
          ],
          [
            [
              [-118.5556836, 34.0406805],
              [-118.5556497, 34.0407826],
              [-118.5556609, 34.0408957],
              [-118.555726, 34.0410101],
              [-118.5558459, 34.0411364],
              [-118.5560545, 34.0412005],
              [-118.5562047, 34.0411546],
              [-118.5562249, 34.0410024],
              [-118.556091, 34.0408956],
              [-118.5559358, 34.0408315],
              [-118.5558458, 34.0407728],
              [-118.5558351, 34.0406328],
              [-118.555753, 34.0406209],
              [-118.5556836, 34.0406805]
            ]
          ],
          [
            [
              [-118.5578391, 34.0401499],
              [-118.557758, 34.040242],
              [-118.5575479, 34.0402908],
              [-118.5575043, 34.0404984],
              [-118.5573695, 34.0405885],
              [-118.5572924, 34.0406202],
              [-118.557234, 34.0406739],
              [-118.5572516, 34.0407349],
              [-118.5573375, 34.0407814],
              [-118.5574592, 34.0408203],
              [-118.55758, 34.0408484],
              [-118.5576814, 34.0408803],
              [-118.5577868, 34.0409305],
              [-118.5579004, 34.0409516],
              [-118.5579975, 34.0409342],
              [-118.5581772, 34.0410456],
              [-118.5582898, 34.0411648],
              [-118.5584884, 34.0412943],
              [-118.5585947, 34.0414504],
              [-118.5586135, 34.0416046],
              [-118.5585576, 34.0418346],
              [-118.5583057, 34.0419546],
              [-118.5580701, 34.0419903],
              [-118.5580371, 34.0421242],
              [-118.5578801, 34.0423591],
              [-118.5577292, 34.0424927],
              [-118.557385, 34.0425307],
              [-118.5571535, 34.0425413],
              [-118.5569119, 34.0425347],
              [-118.5566815, 34.0425413],
              [-118.5564099, 34.0423628],
              [-118.5561408, 34.0422234],
              [-118.55596, 34.0420323],
              [-118.5559468, 34.0418847],
              [-118.5558457, 34.0417797],
              [-118.5556753, 34.0417394],
              [-118.5555333, 34.0417879],
              [-118.5554865, 34.0418979],
              [-118.5553995, 34.0420465],
              [-118.5553566, 34.0421746],
              [-118.5551113, 34.0423217],
              [-118.5549284, 34.0423048],
              [-118.5547362, 34.0422633],
              [-118.5544927, 34.0422718],
              [-118.5542994, 34.0424389],
              [-118.5542124, 34.0425951],
              [-118.5541312, 34.0427245],
              [-118.5540019, 34.0428214],
              [-118.5538111, 34.0429256],
              [-118.5536849, 34.0430375],
              [-118.5535915, 34.043112],
              [-118.5535216, 34.0432398],
              [-118.5532791, 34.0435338],
              [-118.5530253, 34.0438544],
              [-118.5531663, 34.0438055],
              [-118.5533047, 34.0437678],
              [-118.5535117, 34.04368],
              [-118.5536778, 34.0436124],
              [-118.5538146, 34.0435076],
              [-118.5539405, 34.0434118],
              [-118.5541654, 34.0434614],
              [-118.554312, 34.0435257],
              [-118.5543934, 34.0436322],
              [-118.5544639, 34.0438328],
              [-118.5545198, 34.0439798],
              [-118.5546227, 34.0441205],
              [-118.5548277, 34.0442724],
              [-118.5551183, 34.0443993],
              [-118.5553595, 34.044597],
              [-118.555617, 34.044533],
              [-118.5557715, 34.0443125],
              [-118.5556377, 34.0439417],
              [-118.5560068, 34.0437923],
              [-118.5564016, 34.0438137],
              [-118.5566076, 34.0439559],
              [-118.5567278, 34.0441408],
              [-118.5568464, 34.0442796],
              [-118.5568009, 34.0443929],
              [-118.5565906, 34.044527],
              [-118.5565234, 34.0447022],
              [-118.5565297, 34.0448586],
              [-118.5564822, 34.0449611],
              [-118.5564399, 34.0450747],
              [-118.5565085, 34.0452142],
              [-118.5565276, 34.0453374],
              [-118.5565153, 34.0454438],
              [-118.5564344, 34.0455191],
              [-118.5563916, 34.0455702],
              [-118.5562879, 34.0456793],
              [-118.5561462, 34.0457122],
              [-118.5561523, 34.0457057],
              [-118.5560925, 34.045654],
              [-118.5560215, 34.0456589],
              [-118.5559812, 34.0456994],
              [-118.5559491, 34.045726],
              [-118.5559214, 34.0457271],
              [-118.5556896, 34.0457183],
              [-118.5554722, 34.0456702],
              [-118.5552896, 34.0455818],
              [-118.5551136, 34.0455233],
              [-118.5549293, 34.0454997],
              [-118.5547976, 34.0454953],
              [-118.5546379, 34.0455081],
              [-118.5543808, 34.0455038],
              [-118.5541439, 34.0453331],
              [-118.5540629, 34.0450632],
              [-118.554165, 34.0448383],
              [-118.5541972, 34.0446355],
              [-118.5542033, 34.0445086],
              [-118.5542275, 34.0444731],
              [-118.5542856, 34.0442274],
              [-118.5539868, 34.0441089],
              [-118.5538773, 34.0442243],
              [-118.5538535, 34.0444611],
              [-118.553579, 34.0447073],
              [-118.5535149, 34.0450289],
              [-118.5533078, 34.0451288],
              [-118.5531267, 34.0452646],
              [-118.5530202, 34.0455403],
              [-118.5528786, 34.045819],
              [-118.552951, 34.0460425],
              [-118.5529783, 34.0462357],
              [-118.5529394, 34.0465067],
              [-118.552973, 34.0467368],
              [-118.5532008, 34.0469899],
              [-118.5534534, 34.0471507],
              [-118.5535878, 34.0473495],
              [-118.5536502, 34.0475489],
              [-118.5535955, 34.0477836],
              [-118.5534985, 34.047914],
              [-118.5536175, 34.0480959],
              [-118.553946, 34.0482997],
              [-118.5541549, 34.0484401],
              [-118.5542511, 34.0487089],
              [-118.5542377, 34.0489538],
              [-118.5541937, 34.0491683],
              [-118.5539228, 34.0493522],
              [-118.5535355, 34.0495024],
              [-118.5530997, 34.049569],
              [-118.5528585, 34.0495785],
              [-118.5528145, 34.0497984],
              [-118.5527993, 34.0500852],
              [-118.5528002, 34.0503053],
              [-118.5527928, 34.0505618],
              [-118.5527784, 34.0508],
              [-118.5529349, 34.0509827],
              [-118.5530375, 34.051184],
              [-118.5530637, 34.0513948],
              [-118.5531274, 34.0517032],
              [-118.5532151, 34.0518438],
              [-118.5532774, 34.0519509],
              [-118.5533532, 34.0521425],
              [-118.5534571, 34.0524467],
              [-118.553455, 34.0526553],
              [-118.553319, 34.0528165],
              [-118.5530891, 34.0528492],
              [-118.5529104, 34.052818],
              [-118.5525581, 34.0525969],
              [-118.5522436, 34.0524957],
              [-118.551997, 34.0524893],
              [-118.5519291, 34.0522909],
              [-118.5518056, 34.0520942],
              [-118.5518212, 34.0517796],
              [-118.5518331, 34.0515431],
              [-118.5518439, 34.0513035],
              [-118.5518549, 34.0510536],
              [-118.5517542, 34.0507393],
              [-118.5516781, 34.0504917],
              [-118.5515949, 34.0502721],
              [-118.5515446, 34.050057],
              [-118.5515077, 34.0498414],
              [-118.5515448, 34.0495771],
              [-118.5516111, 34.0493052],
              [-118.5516101, 34.0490046],
              [-118.5516885, 34.0487775],
              [-118.5517168, 34.0486168],
              [-118.5515877, 34.0484647],
              [-118.5515106, 34.0483523],
              [-118.5514466, 34.0480784],
              [-118.5514603, 34.0477433],
              [-118.5516507, 34.0475393],
              [-118.551708, 34.0473506],
              [-118.5517486, 34.0473299],
              [-118.5518906, 34.0470901],
              [-118.5521061, 34.0469327],
              [-118.5522807, 34.0467809],
              [-118.552218, 34.046585],
              [-118.551922, 34.0464328],
              [-118.551648, 34.0461435],
              [-118.55136, 34.0458817],
              [-118.5513167, 34.04551],
              [-118.5513049, 34.0452559],
              [-118.551299, 34.0449356],
              [-118.5512498, 34.0446009],
              [-118.5511294, 34.0443892],
              [-118.5509694, 34.0442727],
              [-118.5508008, 34.0439492],
              [-118.550922, 34.043804],
              [-118.5510928, 34.0436533],
              [-118.5511101, 34.0433986],
              [-118.5509812, 34.0432366],
              [-118.5508341, 34.04304],
              [-118.5508091, 34.0428345],
              [-118.5506652, 34.0427416],
              [-118.5504448, 34.0428782],
              [-118.5503451, 34.0430385],
              [-118.550267, 34.0432456],
              [-118.5501706, 34.0434757],
              [-118.5499184, 34.043539],
              [-118.5499631, 34.0436618],
              [-118.5499948, 34.0437466],
              [-118.5499478, 34.0438582],
              [-118.5498346, 34.0439063],
              [-118.5497707, 34.0438097],
              [-118.5497554, 34.0436821],
              [-118.5496369, 34.0436641],
              [-118.5494962, 34.0437709],
              [-118.5493485, 34.0439129],
              [-118.5494082, 34.0440596],
              [-118.5494156, 34.0442337],
              [-118.5493857, 34.0444257],
              [-118.5494077, 34.0446009],
              [-118.5495406, 34.0447229],
              [-118.5497863, 34.0447833],
              [-118.5498701, 34.0448573],
              [-118.5499624, 34.0448691],
              [-118.5500963, 34.0447616],
              [-118.5501519, 34.0449175],
              [-118.5503063, 34.0449708],
              [-118.5504853, 34.0450129],
              [-118.5505434, 34.045048],
              [-118.5506435, 34.0450981],
              [-118.5505672, 34.0452964],
              [-118.5502985, 34.0453934],
              [-118.5501942, 34.0455951],
              [-118.5501128, 34.0457638],
              [-118.5499779, 34.0458555],
              [-118.5499051, 34.0459321],
              [-118.549839, 34.0460167],
              [-118.5498576, 34.0461164],
              [-118.5500406, 34.0461011],
              [-118.5502007, 34.0460493],
              [-118.550302, 34.0459131],
              [-118.5504863, 34.0458186],
              [-118.5506175, 34.0459706],
              [-118.5506766, 34.0462561],
              [-118.5507861, 34.0463994],
              [-118.5508656, 34.0465431],
              [-118.5509799, 34.0465968],
              [-118.5510489, 34.0466622],
              [-118.5511201, 34.0468233],
              [-118.5511201, 34.0470499],
              [-118.5510572, 34.0472033],
              [-118.5509069, 34.0471867],
              [-118.5507863, 34.0471878],
              [-118.550635, 34.0472231],
              [-118.5505566, 34.0473631],
              [-118.550651, 34.0475252],
              [-118.5505437, 34.0476994],
              [-118.5505584, 34.0478613],
              [-118.5504711, 34.0480158],
              [-118.5503415, 34.0481657],
              [-118.5503395, 34.0483106],
              [-118.5503434, 34.0484763],
              [-118.5502018, 34.0485721],
              [-118.5500298, 34.0484446],
              [-118.5500049, 34.0482942],
              [-118.5499915, 34.0480655],
              [-118.5499737, 34.047936],
              [-118.5499605, 34.047777],
              [-118.5499325, 34.047641],
              [-118.5499172, 34.0475197],
              [-118.5499811, 34.047375],
              [-118.5500327, 34.0471969],
              [-118.549947, 34.0470958],
              [-118.549731, 34.0472222],
              [-118.5495797, 34.0473726],
              [-118.5494357, 34.0474758],
              [-118.5492986, 34.0474891],
              [-118.5490903, 34.0474823],
              [-118.5489155, 34.0475672],
              [-118.5487432, 34.0477031],
              [-118.5486532, 34.0478388],
              [-118.5487312, 34.0479465],
              [-118.5489052, 34.0480181],
              [-118.5490049, 34.0481723],
              [-118.5490468, 34.0483526],
              [-118.5492004, 34.0484864],
              [-118.549396, 34.0484901],
              [-118.549527, 34.0485742],
              [-118.5495749, 34.0486931],
              [-118.5496026, 34.0487667],
              [-118.54947, 34.0489206],
              [-118.5494038, 34.0493901],
              [-118.5494902, 34.0496722],
              [-118.5497239, 34.0497771],
              [-118.549982, 34.0498773],
              [-118.5502147, 34.0500615],
              [-118.5502762, 34.0502597],
              [-118.5500396, 34.0503696],
              [-118.5497204, 34.0503548],
              [-118.5494457, 34.0504986],
              [-118.5492583, 34.0506849],
              [-118.5491337, 34.0508747],
              [-118.5491191, 34.0510242],
              [-118.5490632, 34.0512246],
              [-118.5490356, 34.0513216],
              [-118.548714, 34.0513729],
              [-118.5483716, 34.0514017],
              [-118.5482622, 34.0515841],
              [-118.5482631, 34.0517881],
              [-118.5483112, 34.0519065],
              [-118.5485086, 34.0519284],
              [-118.5487333, 34.0518496],
              [-118.5489172, 34.0518666],
              [-118.5490885, 34.0519636],
              [-118.5490397, 34.0521948],
              [-118.54885, 34.0523324],
              [-118.5488346, 34.0525148],
              [-118.548854, 34.0527032],
              [-118.5489683, 34.0528024],
              [-118.5491111, 34.0527424],
              [-118.549251, 34.0528406],
              [-118.5493393, 34.0530047],
              [-118.549435, 34.0531982],
              [-118.5495207, 34.0534803],
              [-118.5494787, 34.0539372],
              [-118.5494687, 34.0542857],
              [-118.5495764, 34.054583],
              [-118.5496388, 34.0549155],
              [-118.5495696, 34.055281],
              [-118.5496586, 34.0556093],
              [-118.5496693, 34.0559293],
              [-118.5495527, 34.0561414],
              [-118.5493521, 34.0561487],
              [-118.5491705, 34.0560959],
              [-118.5491105, 34.0558361],
              [-118.548951, 34.0556283],
              [-118.5488385, 34.0554752],
              [-118.5488344, 34.0553704],
              [-118.5491006, 34.0552754],
              [-118.5490686, 34.0550902],
              [-118.5489797, 34.0549272],
              [-118.5489012, 34.0547126],
              [-118.5486785, 34.0545421],
              [-118.5484255, 34.0547397],
              [-118.5481613, 34.0548518],
              [-118.5479725, 34.054758],
              [-118.5478803, 34.0545867],
              [-118.5477187, 34.0544599],
              [-118.5474853, 34.054545],
              [-118.5475211, 34.0548135],
              [-118.5476691, 34.0550553],
              [-118.5478612, 34.055228],
              [-118.5479155, 34.0554763],
              [-118.5476116, 34.0555979],
              [-118.5473708, 34.055773],
              [-118.5472305, 34.0560106],
              [-118.5472125, 34.0562244],
              [-118.5472583, 34.0564517],
              [-118.5472235, 34.0567446],
              [-118.5470791, 34.0569084],
              [-118.5468385, 34.0570186],
              [-118.5466657, 34.0571569],
              [-118.5464878, 34.0573254],
              [-118.5465148, 34.0574708],
              [-118.5466806, 34.0576943],
              [-118.5467954, 34.057652],
              [-118.5469955, 34.0575367],
              [-118.547154, 34.0574736],
              [-118.5473531, 34.0574014],
              [-118.5475827, 34.057356],
              [-118.547762, 34.0572183],
              [-118.5479142, 34.0569861],
              [-118.5477849, 34.0567161],
              [-118.5477966, 34.0564759],
              [-118.5478171, 34.0562688],
              [-118.5479644, 34.0561121],
              [-118.5481939, 34.0560474],
              [-118.548581, 34.0562368],
              [-118.5486979, 34.0565986],
              [-118.5487437, 34.0569617],
              [-118.548885, 34.0572805],
              [-118.5491171, 34.0576253],
              [-118.5494448, 34.0577903],
              [-118.5498317, 34.0577096],
              [-118.5501279, 34.0575578],
              [-118.5501373, 34.0572559],
              [-118.5502418, 34.0569445],
              [-118.5502249, 34.0566857],
              [-118.5502854, 34.0563959],
              [-118.5502508, 34.0561566],
              [-118.5502939, 34.0559758],
              [-118.550666, 34.0558975],
              [-118.5510053, 34.0560197],
              [-118.5511274, 34.0563375],
              [-118.5513594, 34.0566909],
              [-118.5514299, 34.0570906],
              [-118.5517866, 34.0573872],
              [-118.5524577, 34.0577085],
              [-118.5530936, 34.0576709],
              [-118.5534723, 34.0574647],
              [-118.553881, 34.0571749],
              [-118.5541205, 34.0567947],
              [-118.5540404, 34.0565417],
              [-118.5539447, 34.0563134],
              [-118.5541008, 34.056067],
              [-118.5545099, 34.056073],
              [-118.5547439, 34.0561774],
              [-118.5550062, 34.056254],
              [-118.5554631, 34.056192],
              [-118.5557867, 34.0561415],
              [-118.556047, 34.0560111],
              [-118.5564377, 34.0559951],
              [-118.5567207, 34.055953],
              [-118.5570252, 34.0559704],
              [-118.5570987, 34.0560234],
              [-118.5572443, 34.056183],
              [-118.5574721, 34.0562786],
              [-118.5576272, 34.0562535],
              [-118.5577902, 34.0561697],
              [-118.5580135, 34.056162],
              [-118.5582425, 34.0563014],
              [-118.5583521, 34.056507],
              [-118.5585155, 34.0566979],
              [-118.5588114, 34.0570084],
              [-118.5591775, 34.0571349],
              [-118.5594306, 34.0572144],
              [-118.5596931, 34.0572991],
              [-118.5598784, 34.0573901],
              [-118.5600035, 34.0575324],
              [-118.5601246, 34.0576971],
              [-118.5603689, 34.0577031],
              [-118.5605965, 34.057627],
              [-118.5607155, 34.0575056],
              [-118.5607434, 34.0573423],
              [-118.5607582, 34.0571939],
              [-118.5608158, 34.0570598],
              [-118.5609435, 34.0567991],
              [-118.5610068, 34.0566123],
              [-118.5611676, 34.056481],
              [-118.5614239, 34.0564144],
              [-118.5615579, 34.0564576],
              [-118.5616153, 34.0567157],
              [-118.5617529, 34.0568436],
              [-118.5619604, 34.0569305],
              [-118.562097, 34.0569468],
              [-118.5622505, 34.0569404],
              [-118.5623678, 34.0569116],
              [-118.5624061, 34.0570733],
              [-118.5624883, 34.0572618],
              [-118.5625439, 34.0574339],
              [-118.5626445, 34.0575758],
              [-118.5628292, 34.0575862],
              [-118.5630394, 34.0575133],
              [-118.5631941, 34.0573781],
              [-118.5632578, 34.0572456],
              [-118.5633961, 34.0570735],
              [-118.5632294, 34.0568912],
              [-118.5632106, 34.0567392],
              [-118.5632169, 34.0565798],
              [-118.5632574, 34.0564198],
              [-118.5633809, 34.0562683],
              [-118.5634615, 34.0562016],
              [-118.5636349, 34.0560758],
              [-118.5637526, 34.0559874],
              [-118.5639293, 34.0559652],
              [-118.5642099, 34.0559989],
              [-118.5643651, 34.0559511],
              [-118.5644091, 34.0558637],
              [-118.5643938, 34.0556648],
              [-118.5644487, 34.0555298],
              [-118.5645877, 34.0553563],
              [-118.5646631, 34.0551757],
              [-118.5646642, 34.0550133],
              [-118.564573, 34.0548685],
              [-118.5644887, 34.0547675],
              [-118.5645022, 34.0546156],
              [-118.5645414, 34.0544754],
              [-118.5645829, 34.0543103],
              [-118.5647253, 34.0541409],
              [-118.564872, 34.0539828],
              [-118.5649534, 34.0538033],
              [-118.5649772, 34.0536511],
              [-118.564945, 34.0534455],
              [-118.5648114, 34.0533762],
              [-118.5646521, 34.0532703],
              [-118.564633, 34.0531367],
              [-118.564825, 34.0531057],
              [-118.5650305, 34.0530889],
              [-118.5651237, 34.0529763],
              [-118.5650931, 34.0527768],
              [-118.5649739, 34.0526614],
              [-118.5648941, 34.0525558],
              [-118.5648821, 34.0523982],
              [-118.5650711, 34.0524666],
              [-118.5652488, 34.0524912],
              [-118.5654212, 34.0525407],
              [-118.5656511, 34.0526637],
              [-118.5658001, 34.0527901],
              [-118.5658491, 34.0528743],
              [-118.5658499, 34.0530822],
              [-118.56595, 34.0531947],
              [-118.5660612, 34.0531991],
              [-118.5660862, 34.0530909],
              [-118.5660657, 34.0529364],
              [-118.5660197, 34.0527738],
              [-118.5660312, 34.052657],
              [-118.566061, 34.0525271],
              [-118.5661923, 34.0523876],
              [-118.5663692, 34.0523215],
              [-118.566508, 34.0522071],
              [-118.5665586, 34.0520644],
              [-118.5666885, 34.0519123],
              [-118.5669539, 34.0518932],
              [-118.5671588, 34.0519199],
              [-118.5673173, 34.0519003],
              [-118.5675478, 34.0519611],
              [-118.5676914, 34.0520922],
              [-118.5677892, 34.0521574],
              [-118.5678725, 34.0522572],
              [-118.567961, 34.0523984],
              [-118.5680606, 34.0524653],
              [-118.5682177, 34.0524344],
              [-118.568231, 34.0523222],
              [-118.5682319, 34.0522365],
              [-118.5682257, 34.0521125],
              [-118.5683283, 34.0519344],
              [-118.5684126, 34.0517583],
              [-118.5684842, 34.051657],
              [-118.5685748, 34.0515518],
              [-118.5685811, 34.0514393],
              [-118.5686092, 34.0512956],
              [-118.5686973, 34.051219],
              [-118.5689193, 34.0511833],
              [-118.5689803, 34.0510597],
              [-118.5690587, 34.0509291],
              [-118.5690986, 34.0507978],
              [-118.5692395, 34.0506541],
              [-118.5691689, 34.0505238],
              [-118.5690737, 34.0504167],
              [-118.5690201, 34.0503079],
              [-118.5690367, 34.0501123],
              [-118.5690497, 34.0499758],
              [-118.5692177, 34.0498029],
              [-118.5692449, 34.049652],
              [-118.5691219, 34.0494893],
              [-118.56891, 34.0493392],
              [-118.568742, 34.049228],
              [-118.5685901, 34.0491605],
              [-118.5683904, 34.0490533],
              [-118.568182, 34.0489117],
              [-118.5681819, 34.0489512],
              [-118.5681664, 34.0487678],
              [-118.568346, 34.0487298],
              [-118.5685777, 34.048767],
              [-118.5688912, 34.0488774],
              [-118.5690609, 34.0489235],
              [-118.5692483, 34.0489539],
              [-118.5693832, 34.0488483],
              [-118.5693355, 34.048875],
              [-118.5694221, 34.0487069],
              [-118.5693956, 34.0485588],
              [-118.5691376, 34.0484418],
              [-118.5688671, 34.048435],
              [-118.5686091, 34.0483338],
              [-118.5683051, 34.0483006],
              [-118.5680265, 34.0482273],
              [-118.567852, 34.0480595],
              [-118.5675602, 34.048061],
              [-118.5673907, 34.0480161],
              [-118.5670981, 34.04812],
              [-118.5669711, 34.0483408],
              [-118.5669527, 34.0485919],
              [-118.5667389, 34.0487034],
              [-118.566497, 34.0486781],
              [-118.5663693, 34.0487918],
              [-118.56613, 34.048882],
              [-118.5659488, 34.048954],
              [-118.5657827, 34.0489223],
              [-118.5656391, 34.0488163],
              [-118.5656089, 34.0486463],
              [-118.5656495, 34.048509],
              [-118.565711, 34.0484352],
              [-118.5658184, 34.0483848],
              [-118.5659374, 34.048477],
              [-118.5660996, 34.0485461],
              [-118.5661891, 34.0485197],
              [-118.5661977, 34.048418],
              [-118.5660996, 34.0483558],
              [-118.5659185, 34.0482375],
              [-118.5657377, 34.0481703],
              [-118.5655391, 34.0481601],
              [-118.5653941, 34.0482157],
              [-118.5651604, 34.0481654],
              [-118.5650497, 34.0480622],
              [-118.5650729, 34.0479068],
              [-118.5652279, 34.0477098],
              [-118.5654137, 34.0475627],
              [-118.5654676, 34.047428],
              [-118.5656013, 34.047184],
              [-118.565721, 34.0470131],
              [-118.5659148, 34.0468547],
              [-118.5661762, 34.0467745],
              [-118.5663962, 34.0466988],
              [-118.5666338, 34.0466344],
              [-118.5668735, 34.0466161],
              [-118.5670718, 34.0465871],
              [-118.5673193, 34.0466412],
              [-118.5674161, 34.0466452],
              [-118.5676483, 34.0466628],
              [-118.5677409, 34.0465166],
              [-118.567635, 34.0463836],
              [-118.5673681, 34.0462985],
              [-118.5670174, 34.0462976],
              [-118.5667566, 34.0463087],
              [-118.56659, 34.0462163],
              [-118.5664893, 34.0460943],
              [-118.566302, 34.0459249],
              [-118.5663449, 34.0457827],
              [-118.5663449, 34.0456973],
              [-118.5661066, 34.0456984],
              [-118.5660492, 34.0458668],
              [-118.5659839, 34.0460561],
              [-118.5658281, 34.0462029],
              [-118.5656218, 34.0462846],
              [-118.5654648, 34.0464556],
              [-118.5652913, 34.0466474],
              [-118.5651209, 34.0467458],
              [-118.5648598, 34.0467492],
              [-118.5646571, 34.0466802],
              [-118.5644507, 34.0466786],
              [-118.5642642, 34.0466243],
              [-118.564106, 34.046573],
              [-118.5639502, 34.0466287],
              [-118.5637583, 34.0466429],
              [-118.5636626, 34.0465393],
              [-118.563702, 34.0463497],
              [-118.5635884, 34.0462913],
              [-118.5634184, 34.0463393],
              [-118.563231, 34.0463355],
              [-118.5629677, 34.046352],
              [-118.5627541, 34.0462687],
              [-118.5625086, 34.0462136],
              [-118.561975, 34.0459412],
              [-118.5621248, 34.0458473],
              [-118.5625374, 34.0457609],
              [-118.5627983, 34.0457582],
              [-118.562943, 34.0457592],
              [-118.5631484, 34.0456309],
              [-118.5633431, 34.045455],
              [-118.5633839, 34.0454408],
              [-118.5635087, 34.0452823],
              [-118.5636708, 34.0451872],
              [-118.5637438, 34.0450937],
              [-118.5639127, 34.0450374],
              [-118.5641081, 34.0449959],
              [-118.5642311, 34.0449227],
              [-118.5643147, 34.0447722],
              [-118.5644499, 34.0446429],
              [-118.564495, 34.0444412],
              [-118.5644035, 34.0442912],
              [-118.5641454, 34.0442732],
              [-118.5639737, 34.0443768],
              [-118.563767, 34.0444147],
              [-118.5636283, 34.0444964],
              [-118.5634577, 34.0445383],
              [-118.5633713, 34.044639],
              [-118.5632636, 34.0447291],
              [-118.5631139, 34.0449021],
              [-118.5628535, 34.0449006],
              [-118.5627184, 34.045016],
              [-118.5626412, 34.0452141],
              [-118.5622538, 34.0453693],
              [-118.5620407, 34.0454773],
              [-118.5617963, 34.0454727],
              [-118.5615282, 34.0454105],
              [-118.5613758, 34.0454182],
              [-118.5611791, 34.0455404],
              [-118.5608144, 34.0454514],
              [-118.5606125, 34.0454053],
              [-118.5603587, 34.0452339],
              [-118.5603148, 34.0449138],
              [-118.5603653, 34.0447083],
              [-118.5602971, 34.0444807],
              [-118.5601093, 34.0443278],
              [-118.5597913, 34.044164],
              [-118.5595423, 34.0439475],
              [-118.559332, 34.0437897],
              [-118.5594041, 34.043686],
              [-118.5594419, 34.0436045],
              [-118.5595447, 34.0435364],
              [-118.5594881, 34.0433963],
              [-118.5596193, 34.0431786],
              [-118.5596903, 34.0430241],
              [-118.559718, 34.0430102],
              [-118.5598056, 34.0428792],
              [-118.5598045, 34.0426708],
              [-118.5598088, 34.0424849],
              [-118.5597354, 34.0423807],
              [-118.5595764, 34.0422735],
              [-118.5595062, 34.0421412],
              [-118.5595664, 34.0419879],
              [-118.5597185, 34.0418283],
              [-118.559899, 34.0418143],
              [-118.5600571, 34.041805],
              [-118.5602892, 34.0418383],
              [-118.5604603, 34.0419435],
              [-118.5606026, 34.0419446],
              [-118.5606778, 34.0419305],
              [-118.5606859, 34.0418389],
              [-118.560718, 34.0418355],
              [-118.5606607, 34.0416454],
              [-118.5605911, 34.041495],
              [-118.5604203, 34.0414145],
              [-118.5603377, 34.0412917],
              [-118.5604518, 34.0411911],
              [-118.5605588, 34.0411536],
              [-118.5605481, 34.0410585],
              [-118.5604433, 34.040978],
              [-118.5602174, 34.0409608],
              [-118.5599776, 34.0409127],
              [-118.559756, 34.0408539],
              [-118.5595764, 34.0407413],
              [-118.559606, 34.0407238],
              [-118.5594885, 34.0405361],
              [-118.559309, 34.0404001],
              [-118.5591255, 34.0403107],
              [-118.5588175, 34.0402353],
              [-118.5586716, 34.0402495],
              [-118.5584656, 34.0402779],
              [-118.5583712, 34.0402637],
              [-118.5582483, 34.0402039],
              [-118.5581051, 34.0401428],
              [-118.5578391, 34.0401499]
            ]
          ],
          [
            [
              [-118.5564429, 34.040147],
              [-118.5564325, 34.0402309],
              [-118.5565031, 34.0402616],
              [-118.5565662, 34.0402496],
              [-118.5566049, 34.0402177],
              [-118.5566439, 34.0401894],
              [-118.5565483, 34.0400926],
              [-118.5564429, 34.040147]
            ]
          ],
          [
            [
              [-118.5558457, 34.0399798],
              [-118.5558422, 34.0400611],
              [-118.5559033, 34.0401074],
              [-118.555962, 34.0401239],
              [-118.5560197, 34.0401236],
              [-118.5560599, 34.0400942],
              [-118.5559773, 34.0400269],
              [-118.5559207, 34.0399756],
              [-118.5558457, 34.0399798]
            ]
          ]
        ]
      }
    }
  ]
}
